{"type": "FeatureCollection", "features": [ {"type": "Feature", "properties": {"norad_id": 38778, "name": "ASTRA 2F", "group": "active", "lat": -0.06700237085992031, "lon": 158.12411624016542, "alt_km": 35783.99845759062, "timestamp": "2025-12-01T03:58:49.242601+00:00", "meta": {"OBJECT_NAME": "ASTRA 2F", "OBJECT_ID": "2012-051A", "EPOCH": "2025-11-30T19:06:47.726208", "MEAN_MOTION": 1.00268944, "ECCENTRICITY": 0.000455, "INCLINATION": 0.0578, "RA_OF_ASC_NODE": 259.6498, "ARG_OF_PERICENTER": 339.9634, "MEAN_ANOMALY": 145.2262, "EPHEMERIS_TYPE": 0, "CLASSIFICATION_TYPE": "U", "NORAD_CAT_ID": 38778, "ELEMENT_SET_NO": 999, "REV_AT_EPOCH": 3914, "BSTAR": 0, "MEAN_MOTION_DOT": 1.72e-06, "MEAN_MOTION_DDOT": 0, "GROUP": "active"}, "tle": {"line1": "1 38778U 12051A   25334.79638572  .00000172  00000+0  00000+0 0  9994", "line2": "2 38778   0.0578 259.6498 0004550 339.9634 145.2262  1.00268944 39142"}}, "geometry": {"type": "Point", "coordinates": [158.12411624016542, -0.06700237085992031]}}, {"type": "Feature", "properties": {"norad_id": 38782, "name": "VRSS-1", "group": "active", "lat": 19.2836489831857, "lon": -45.69707053083831, "alt_km": 640.9774215294137, "timestamp": "2025-12-01T03:58:49.242612+00:00", "meta": {"OBJECT_NAME": "VRSS-1", "OBJECT_ID": "2012-052A", "EPOCH": "2025-11-30T21:23:58.617888", "MEAN_MOTION": 14.7948172, "ECCENTRICITY": 0.0018307, "INCLINATION": 97.5949, "RA_OF_ASC_NODE": 316.7195, "ARG_OF_PERICENTER": 160.3284, "MEAN_ANOMALY": 199.8639, "EPHEMERIS_TYPE": 0, "CLASSIFICATION_TYPE": "U", "NORAD_CAT_ID": 38782, "ELEMENT_SET_NO": 999, "REV_AT_EPOCH": 71028, "BSTAR": 0.00016638, "MEAN_MOTION_DOT": 1.198e-05, "MEAN_MOTION_DDOT": 0, "GROUP": "active"}, "tle": {"line1": "1 38782U 12052A   25334.89165067  .00001198  00000+0  16638-3 0  9992", "line2": "2 38782  97.5949 316.7195 0018307 160.3284 199.8639 14.79481720710284"}}, "geometry": {"type": "Point", "coordinates": [-45.69707053083831, 19.2836489831857]}}, {"type": "Feature", "properties": {"norad_id": 38860, "name": "SJ-9A", "group": "active", "lat": 40.13340470550577, "lon": -56.83684946143487, "alt_km": 625.4158900855464, "timestamp": "2025-12-01T03:58:49.242622+00:00", "meta": {"OBJECT_NAME": "SJ-9A", "OBJECT_ID": "2012-056A", "EPOCH": "2025-11-30T19:42:39.812832", "MEAN_MOTION": 14.84907604, "ECCENTRICITY": 0.0025488, "INCLINATION": 97.6469, "RA_OF_ASC_NODE": 309.3363, "ARG_OF_PERICENTER": 187.0598, "MEAN_ANOMALY": 173.0262, "EPHEMERIS_TYPE": 0, "CLASSIFICATION_TYPE": "U", "NORAD_CAT_ID": 38860, "ELEMENT_SET_NO": 999, "REV_AT_EPOCH": 67014, "BSTAR": 0.00012206, "MEAN_MOTION_DOT": 9.92e-06, "MEAN_MOTION_DDOT": 0, "GROUP": "active"}, "tle": {"line1": "1 38860U 12056A   25334.82129413  .00000992  00000+0  12206-3 0  9999", "line2": "2 38860  97.6469 309.3363 0025488 187.0598 173.0262 14.84907604670142"}}, "geometry": {"type": "Point", "coordinates": [-56.83684946143487, 40.13340470550577]}}, {"type": "Feature", "properties": {"norad_id": 38861, "name": "SJ-9B", "group": "active", "lat": -81.40655259166175, "lon": 80.0496973348184, "alt_km": 609.7351993054217, "timestamp": "2025-12-01T03:58:49.242632+00:00", "meta": {"OBJECT_NAME": "SJ-9B", "OBJECT_ID": "2012-056B", "EPOCH": "2025-11-30T13:53:59.625312", "MEAN_MOTION": 14.9025058, "ECCENTRICITY": 0.0016226, "INCLINATION": 97.5814, "RA_OF_ASC_NODE": 321.2924, "ARG_OF_PERICENTER": 150.3017, "MEAN_ANOMALY": 209.9126, "EPHEMERIS_TYPE": 0, "CLASSIFICATION_TYPE": "U", "NORAD_CAT_ID": 38861, "ELEMENT_SET_NO": 999, "REV_AT_EPOCH": 71013, "BSTAR": 0.00030252, "MEAN_MOTION_DOT": 2.889e-05, "MEAN_MOTION_DDOT": 0, "GROUP": "active"}, "tle": {"line1": "1 38861U 12056B   25334.57916233  .00002889  00000+0  30252-3 0  9994", "line2": "2 38861  97.5814 321.2924 0016226 150.3017 209.9126 14.90250580710134"}}, "geometry": {"type": "Point", "coordinates": [80.0496973348184, -81.40655259166175]}}, {"type": "Feature", "properties": {"norad_id": 38978, "name": "YAMAL 300K", "group": "active", "lat": 0.007378676451968247, "lon": -47.077417683429566, "alt_km": 35788.044361741144, "timestamp": "2025-12-01T03:58:49.242644+00:00", "meta": {"OBJECT_NAME": "YAMAL 300K", "OBJECT_ID": "2012-061B", "EPOCH": "2025-11-30T18:08:19.373856", "MEAN_MOTION": 1.00271507, "ECCENTRICITY": 5.18e-05, "INCLINATION": 0.0164, "RA_OF_ASC_NODE": 299.0886, "ARG_OF_PERICENTER": 221.7715, "MEAN_ANOMALY": 4.0616, "EPHEMERIS_TYPE": 0, "CLASSIFICATION_TYPE": "U", "NORAD_CAT_ID": 38978, "ELEMENT_SET_NO": 999, "REV_AT_EPOCH": 4765, "BSTAR": 0, "MEAN_MOTION_DOT": 9.3e-07, "MEAN_MOTION_DDOT": 0, "GROUP": "active"}, "tle": {"line1": "1 38978U 12061B   25334.75577979  .00000093  00000+0  00000+0 0  9998", "line2": "2 38978   0.0164 299.0886 0000518 221.7715   4.0616  1.00271507 47651"}}, "geometry": {"type": "Point", "coordinates": [-47.077417683429566, 0.007378676451968247]}}, {"type": "Feature", "properties": {"norad_id": 38991, "name": "STAR ONE C3", "group": "active", "lat": 0.041222499268597126, "lon": 54.97860158259602, "alt_km": 35794.673820627424, "timestamp": "2025-12-01T03:58:49.242656+00:00", "meta": {"OBJECT_NAME": "STAR ONE C3", "OBJECT_ID": "2012-062A", "EPOCH": "2025-11-30T18:37:24.088800", "MEAN_MOTION": 1.00272437, "ECCENTRICITY": 0.000214, "INCLINATION": 0.036, "RA_OF_ASC_NODE": 276.3014, "ARG_OF_PERICENTER": 334.0332, "MEAN_ANOMALY": 23.9278, "EPHEMERIS_TYPE": 0, "CLASSIFICATION_TYPE": "U", "NORAD_CAT_ID": 38991, "ELEMENT_SET_NO": 999, "REV_AT_EPOCH": 4777, "BSTAR": 0, "MEAN_MOTION_DOT": -2.27e-06, "MEAN_MOTION_DDOT": 0, "GROUP": "active"}, "tle": {"line1": "1 38991U 12062A   25334.77597325 -.00000227  00000+0  00000+0 0  9993", "line2": "2 38991   0.0360 276.3014 0002140 334.0332  23.9278  1.00272437 47771"}}, "geometry": {"type": "Point", "coordinates": [54.97860158259602, 0.041222499268597126]}}, {"type": "Feature", "properties": {"norad_id": 39008, "name": "ECHOSTAR 16", "group": "active", "lat": 0.03545305638430002, "lon": 68.47388541671077, "alt_km": 35795.721300931094, "timestamp": "2025-12-01T03:58:49.242668+00:00", "meta": {"OBJECT_NAME": "ECHOSTAR 16", "OBJECT_ID": "2012-065A", "EPOCH": "2025-11-30T18:41:12.677280", "MEAN_MOTION": 1.00270453, "ECCENTRICITY": 0.0002178, "INCLINATION": 0.0177, "RA_OF_ASC_NODE": 327.1966, "ARG_OF_PERICENTER": 281.1086, "MEAN_ANOMALY": 40.4169, "EPHEMERIS_TYPE": 0, "CLASSIFICATION_TYPE": "U", "NORAD_CAT_ID": 39008, "ELEMENT_SET_NO": 999, "REV_AT_EPOCH": 4764, "BSTAR": 0, "MEAN_MOTION_DOT": -2.6e-06, "MEAN_MOTION_DDOT": 0, "GROUP": "active"}, "tle": {"line1": "1 39008U 12065A   25334.77861895 -.00000260  00000+0  00000+0 0  9999", "line2": "2 39008   0.0177 327.1966 0002178 281.1086  40.4169  1.00270453 47642"}}, "geometry": {"type": "Point", "coordinates": [68.47388541671077, 0.03545305638430002]}}, {"type": "Feature", "properties": {"norad_id": 39011, "name": "YAOGAN-16 01A", "group": "active", "lat": -59.35916771401298, "lon": -40.89599850187635, "alt_km": 1293.7243283403523, "timestamp": "2025-12-01T03:58:49.242678+00:00", "meta": {"OBJECT_NAME": "YAOGAN-16 01A", "OBJECT_ID": "2012-066A", "EPOCH": "2025-11-30T17:47:38.160096", "MEAN_MOTION": 13.45484301, "ECCENTRICITY": 0.041926, "INCLINATION": 63.3561, "RA_OF_ASC_NODE": 82.2598, "ARG_OF_PERICENTER": 25.5153, "MEAN_ANOMALY": 336.5932, "EPHEMERIS_TYPE": 0, "CLASSIFICATION_TYPE": "U", "NORAD_CAT_ID": 39011, "ELEMENT_SET_NO": 999, "REV_AT_EPOCH": 63944, "BSTAR": 3.1118e-05, "MEAN_MOTION_DOT": -6e-07, "MEAN_MOTION_DDOT": 0, "GROUP": "active"}, "tle": {"line1": "1 39011U 12066A   25334.74141389 -.00000060  00000+0  31118-4 0  9997", "line2": "2 39011  63.3561  82.2598 0419260  25.5153 336.5932 13.45484301639447"}}, "geometry": {"type": "Point", "coordinates": [-40.89599850187635, -59.35916771401298]}}, {"type": "Feature", "properties": {"norad_id": 39012, "name": "YAOGAN-16 01B", "group": "active", "lat": -46.72842336800663, "lon": -66.39772375414607, "alt_km": 1364.6620309142, "timestamp": "2025-12-01T03:58:49.242688+00:00", "meta": {"OBJECT_NAME": "YAOGAN-16 01B", "OBJECT_ID": "2012-066B", "EPOCH": "2025-11-30T17:53:53.340000", "MEAN_MOTION": 13.45482448, "ECCENTRICITY": 0.0419417, "INCLINATION": 63.3565, "RA_OF_ASC_NODE": 82.4612, "ARG_OF_PERICENTER": 25.2651, "MEAN_ANOMALY": 336.8256, "EPHEMERIS_TYPE": 0, "CLASSIFICATION_TYPE": "U", "NORAD_CAT_ID": 39012, "ELEMENT_SET_NO": 999, "REV_AT_EPOCH": 63940, "BSTAR": 4.9706e-05, "MEAN_MOTION_DOT": -4.1e-07, "MEAN_MOTION_DDOT": 0, "GROUP": "active"}, "tle": {"line1": "1 39012U 12066B   25334.74575625 -.00000041  00000+0  49706-4 0  9993", "line2": "2 39012  63.3565  82.4612 0419417  25.2651 336.8256 13.45482448639403"}}, "geometry": {"type": "Point", "coordinates": [-66.39772375414607, -46.72842336800663]}}, {"type": "Feature", "properties": {"norad_id": 39013, "name": "YAOGAN-16 01C", "group": "active", "lat": -51.39972323896195, "lon": -60.18543559613835, "alt_km": 1343.316204577577, "timestamp": "2025-12-01T03:58:49.242723+00:00", "meta": {"OBJECT_NAME": "YAOGAN-16 01C", "OBJECT_ID": "2012-066C", "EPOCH": "2025-11-30T21:25:52.056768", "MEAN_MOTION": 13.45473657, "ECCENTRICITY": 0.0419665, "INCLINATION": 63.3578, "RA_OF_ASC_NODE": 81.556, "ARG_OF_PERICENTER": 24.84, "MEAN_ANOMALY": 337.2201, "EPHEMERIS_TYPE": 0, "CLASSIFICATION_TYPE": "U", "NORAD_CAT_ID": 39013, "ELEMENT_SET_NO": 999, "REV_AT_EPOCH": 63945, "BSTAR": 4.2201e-05, "MEAN_MOTION_DOT": -4.8e-07, "MEAN_MOTION_DDOT": 0, "GROUP": "active"}, "tle": {"line1": "1 39013U 12066C   25334.89296362 -.00000048  00000+0  42201-4 0  9998", "line2": "2 39013  63.3578  81.5560 0419665  24.8400 337.2201 13.45473657639454"}}, "geometry": {"type": "Point", "coordinates": [-60.18543559613835, -51.39972323896195]}}]}